{"norad_cat_id":"44882","object_name":"OBJECT D","object_id":"2019-093D","object_type":"UNKNOWN","country_code":"TBD","epoch":"2026-05-30T05:39:43.123392","creation_date":"2026-05-30T07:26:56","launch_date":"2019-12-20","decay_date":null,"inclination":97.7927,"eccentricity":0.001525,"mean_motion":15.04972852,"period":95.683,"semimajor_axis":6929.726,"apoapsis":562.159,"periapsis":541.023,"tle_line0":"0 OBJECT D","tle_line1":"1 44882U 19093D   26150.23591578  .00008602  00000-0  60929-3 0  9997","tle_line2":"2 44882  97.7927 244.8584 0015250  86.2236 274.0734 15.04972852349910","fetched_at":"2026-05-30T16:18:06.042337+00:00"}
{"norad_cat_id":"60182","object_name":"ALOS-4","object_id":"2024-123A","object_type":"PAYLOAD","country_code":"JPN","epoch":"2026-05-30T05:39:32.092704","creation_date":"2026-05-30T07:36:53","launch_date":"2024-07-01","decay_date":null,"inclination":97.9238,"eccentricity":0.0001608,"mean_motion":14.79483298,"period":97.331,"semimajor_axis":7009.093,"apoapsis":632.085,"periapsis":629.831,"tle_line0":"0 ALOS-4","tle_line1":"1 60182U 24123A   26150.23578811  .00002194  00000-0  30048-3 0  9992","tle_line2":"2 60182  97.9238 247.6616 0001608  97.8884 262.2510 14.79483298103229","fetched_at":"2026-05-30T16:18:06.042337+00:00"}
{"norad_cat_id":"43753","object_name":"COSMOS 2532","object_id":"2018-097C","object_type":"PAYLOAD","country_code":"CIS","epoch":"2026-05-30T05:38:48.154848","creation_date":"2026-05-30T07:26:56","launch_date":"2018-11-30","decay_date":null,"inclination":82.5147,"eccentricity":0.0019374,"mean_motion":12.4290911,"period":115.857,"semimajor_axis":7872.432,"apoapsis":1509.549,"periapsis":1479.045,"tle_line0":"0 COSMOS 2532","tle_line1":"1 43753U 18097C   26150.23527957  .00000048  00000-0  27136-3 0  9995","tle_line2":"2 43753  82.5147 233.2666 0019374  97.2830 263.0453 12.42909110340045","fetched_at":"2026-05-30T16:18:06.042337+00:00"}
{"norad_cat_id":"44880","object_name":"OBJECT B","object_id":"2019-093B","object_type":"UNKNOWN","country_code":"TBD","epoch":"2026-05-30T05:38:44.896704","creation_date":"2026-05-30T07:26:56","launch_date":"2019-12-20","decay_date":null,"inclination":97.782,"eccentricity":0.0012694,"mean_motion":14.95750987,"period":96.273,"semimajor_axis":6958.18,"apoapsis":588.877,"periapsis":571.212,"tle_line0":"0 OBJECT B","tle_line1":"1 44880U 19093B   26150.23524186  .00005180  00000-0  46920-3 0  9999","tle_line2":"2 44880  97.7820 234.6495 0012694 112.9724 247.2837 14.95750987349374","fetched_at":"2026-05-30T16:18:06.042337+00:00"}
{"norad_cat_id":"61227","object_name":"OBJECT A","object_id":"2024-173A","object_type":"UNKNOWN","country_code":"PRC","epoch":"2026-05-30T05:38:39.781824","creation_date":"2026-05-30T07:46:57","launch_date":"2024-09-24","decay_date":null,"inclination":97.3413,"eccentricity":0.0003386,"mean_motion":15.67110407,"period":91.889,"semimajor_axis":6745.313,"apoapsis":369.462,"periapsis":364.894,"tle_line0":"0 OBJECT A","tle_line1":"1 61227U 24173A   26150.23518266  .00116829  00000-0  10829-2 0  9991","tle_line2":"2 61227  97.3413 237.2684 0003386 281.7731  78.3150 15.67110407 94254","fetched_at":"2026-05-30T16:18:06.042337+00:00"}
{"norad_cat_id":"44421","object_name":"COSMOS 2535","object_id":"2019-039A","object_type":"PAYLOAD","country_code":"CIS","epoch":"2026-05-30T05:38:15.231264","creation_date":"2026-05-30T07:26:56","launch_date":"2019-07-10","decay_date":null,"inclination":97.5779,"eccentricity":0.0006663,"mean_motion":14.91901849,"period":96.521,"semimajor_axis":6970.143,"apoapsis":596.652,"periapsis":587.364,"tle_line0":"0 COSMOS 2535","tle_line1":"1 44421U 19039A   26150.23489851  .00001529  00000-0  15655-3 0  9993","tle_line2":"2 44421  97.5779 179.0856 0006663 273.1289  86.9168 14.91901849373962","fetched_at":"2026-05-30T16:18:06.042337+00:00"}
{"norad_cat_id":"52153","object_name":"OBJECT A","object_id":"2022-032A","object_type":"UNKNOWN","country_code":"PRC","epoch":"2026-05-30T05:38:11.279328","creation_date":"2026-05-30T07:36:53","launch_date":"2022-03-30","decay_date":null,"inclination":97.5861,"eccentricity":0.0009365,"mean_motion":14.97146489,"period":96.183,"semimajor_axis":6953.855,"apoapsis":582.232,"periapsis":569.208,"tle_line0":"0 OBJECT A","tle_line1":"1 52153U 22032A   26150.23485277  .00001538  00000-0  13800-3 0  9999","tle_line2":"2 52153  97.5861 188.4680 0009365 235.3669 124.6671 14.97146489227153","fetched_at":"2026-05-30T16:18:06.042337+00:00"}
{"norad_cat_id":"64574","object_name":"ICEYE-X56","object_id":"2025-135AY","object_type":"PAYLOAD","country_code":"FIN","epoch":"2026-05-30T05:37:46.758144","creation_date":"2026-05-30T07:46:57","launch_date":"2025-06-23","decay_date":null,"inclination":97.7725,"eccentricity":0.0002752,"mean_motion":14.95491205,"period":96.289,"semimajor_axis":6958.986,"apoapsis":582.766,"periapsis":578.935,"tle_line0":"0 ICEYE-X56","tle_line1":"1 64574U 25135AY  26150.23456896  .00004028  00000-0  36896-3 0  9998","tle_line2":"2 64574  97.7725 265.3368 0002752  57.7106 302.4381 14.95491205 51243","fetched_at":"2026-05-30T16:18:06.042337+00:00"}
{"norad_cat_id":"63602","object_name":"SHIYAN 27D","object_id":"2025-078D","object_type":"PAYLOAD","country_code":"PRC","epoch":"2026-05-30T05:37:44.825376","creation_date":"2026-05-30T07:46:57","launch_date":"2025-04-18","decay_date":null,"inclination":99.6924,"eccentricity":0.0001175,"mean_motion":13.57247288,"period":106.097,"semimajor_axis":7423.85,"apoapsis":1046.587,"periapsis":1044.843,"tle_line0":"0 SHIYAN 27D","tle_line1":"1 63602U 25078D   26150.23454659  .00000012  00000-0  78458-4 0  9990","tle_line2":"2 63602  99.6924 157.7411 0001175  89.0753 271.0520 13.57247288 55093","fetched_at":"2026-05-30T16:18:06.042337+00:00"}
{"norad_cat_id":"55051","object_name":"ION SCV-008","object_id":"2023-001AU","object_type":"PAYLOAD","country_code":"IT","epoch":"2026-05-30T05:37:41.878272","creation_date":"2026-05-30T07:36:53","launch_date":"2023-01-03","decay_date":null,"inclination":97.5706,"eccentricity":0.0016344,"mean_motion":15.2833181,"period":94.22,"semimajor_axis":6858.936,"apoapsis":492.011,"periapsis":469.591,"tle_line0":"0 ION SCV-008","tle_line1":"1 55051U 23001AU  26150.23451248  .00008773  00000-0  31946-3 0  9996","tle_line2":"2 55051  97.5706 246.2562 0016344  78.2386 282.0685 15.28331810188595","fetched_at":"2026-05-30T16:18:06.042337+00:00"}
{"norad_cat_id":"59918","object_name":"OBJECT B","object_id":"2024-105B","object_type":"UNKNOWN","country_code":"PRC","epoch":"2026-05-30T05:37:33.911328","creation_date":"2026-05-30T07:36:53","launch_date":"2024-05-30","decay_date":null,"inclination":97.5821,"eccentricity":0.001038,"mean_motion":15.18896417,"period":94.806,"semimajor_axis":6887.312,"apoapsis":516.326,"periapsis":502.028,"tle_line0":"0 OBJECT B","tle_line1":"1 59918U 24105B   26150.23442027  .00008410  00000-0  40576-3 0  9990","tle_line2":"2 59918  97.5821 165.6221 0010380 313.3953  46.6416 15.18896417110322","fetched_at":"2026-05-30T16:18:06.042337+00:00"}
{"norad_cat_id":"38782","object_name":"VRSS-1","object_id":"2012-052A","object_type":"PAYLOAD","country_code":"VENZ","epoch":"2026-05-30T05:37:05.244672","creation_date":"2026-05-30T07:26:56","launch_date":"2012-09-29","decay_date":null,"inclination":97.6137,"eccentricity":0.0016409,"mean_motion":14.79984827,"period":97.298,"semimajor_axis":7007.509,"apoapsis":640.873,"periapsis":617.875,"tle_line0":"0 VRSS-1","tle_line1":"1 38782U 12052A   26150.23408848  .00001967  00000-0  26604-3 0  9993","tle_line2":"2 38782  97.6137 127.4857 0016409 298.8654  61.0912 14.79984827736957","fetched_at":"2026-05-30T16:18:06.042337+00:00"}
{"norad_cat_id":"58502","object_name":"OBJECT A","object_id":"2023-189A","object_type":"UNKNOWN","country_code":"PRC","epoch":"2026-05-30T05:37:03.050112","creation_date":"2026-05-30T07:36:53","launch_date":"2023-12-04","decay_date":null,"inclination":97.4372,"eccentricity":0.0009938,"mean_motion":15.33153358,"period":93.924,"semimajor_axis":6844.548,"apoapsis":473.215,"periapsis":459.611,"tle_line0":"0 OBJECT A","tle_line1":"1 58502U 23189A   26150.23406308  .00006133  00000-0  19374-3 0  9993","tle_line2":"2 58502  97.4372 168.3612 0009938 332.0833  27.9874 15.33153358138468","fetched_at":"2026-05-30T16:18:06.042337+00:00"}
{"norad_cat_id":"39260","object_name":"FENGYUN 3C","object_id":"2013-052A","object_type":"PAYLOAD","country_code":"PRC","epoch":"2026-05-30T05:37:02.841024","creation_date":"2026-05-30T07:26:56","launch_date":"2013-09-23","decay_date":null,"inclination":98.4983,"eccentricity":0.0015867,"mean_motion":14.1575054,"period":101.713,"semimajor_axis":7217.897,"apoapsis":851.215,"periapsis":828.309,"tle_line0":"0 FENGYUN 3C","tle_line1":"1 39260U 13052A   26150.23406066  .00000116  00000-0  80090-4 0  9991","tle_line2":"2 39260  98.4983 124.9345 0015867  76.1377 284.1562 14.15750540656028","fetched_at":"2026-05-30T16:18:06.042337+00:00"}
{"norad_cat_id":"58820","object_name":"OBJECT A","object_id":"2024-016A","object_type":"UNKNOWN","country_code":"PRC","epoch":"2026-05-30T05:36:34.312608","creation_date":"2026-05-30T07:36:53","launch_date":"2024-01-23","decay_date":null,"inclination":97.4483,"eccentricity":0.0007703,"mean_motion":15.53752789,"period":92.679,"semimajor_axis":6783.918,"apoapsis":411.008,"periapsis":400.557,"tle_line0":"0 OBJECT A","tle_line1":"1 58820U 24016A   26150.23373047  .00046662  00000-0  72585-3 0  9993","tle_line2":"2 58820  97.4483 244.8224 0007703 118.2416 241.9616 15.53752789131282","fetched_at":"2026-05-30T16:18:06.042337+00:00"}
